[
    {
        "Altitude(m)": 607895.8479607982,
        "Argument of Periapsis(deg)": 0.0,
        "Eccentricity": 0.0,
        "Inclination(deg)": 60.0,
        "Latitude(deg)": 40.99842241158943,
        "Longitude(deg)": 140.08871231228096,
        "Mean Anomaly(deg)": 130.9091,
        "RAAN(deg)": 90.0,
        "Satellite Name": "Test1 404",
        "Satellite Number": 404,
        "Semi-Major Axis(m)": 6980739.136638005,
        "Time(s)": 0
    },
    {
        "Altitude(m)": 607795.160481253,
        "Argument of Periapsis(deg)": 0.00010418945913296404,
        "Eccentricity": 0.0,
        "Inclination(deg)": 60.0,
        "Latitude(deg)": 40.530746005452755,
        "Longitude(deg)": 140.58530566195083,
        "Mean Anomaly(deg)": 131.52920614546187,
        "RAAN(deg)": 89.99957995086027,
        "Satellite Name": "Test1 404",
        "Satellite Number": 404,
        "Semi-Major Axis(m)": 6980739.136638005,
        "Time(s)": 10
    },
    {
        "Altitude(m)": 607694.6485458917,
        "Argument of Periapsis(deg)": 0.0002083789182659281,
        "Eccentricity": 0.0,
        "Inclination(deg)": 60.0,
        "Latitude(deg)": 40.060559652302715,
        "Longitude(deg)": 141.07445811872114,
        "Mean Anomaly(deg)": 132.14931229092366,
        "RAAN(deg)": 89.99915990172052,
        "Satellite Name": "Test1 404",
        "Satellite Number": 404,
        "Semi-Major Axis(m)": 6980739.136638005,
        "Time(s)": 20
    },
    {
        "Altitude(m)": 607594.3758535807,
        "Argument of Periapsis(deg)": 0.00031256837739889213,
        "Eccentricity": 0.0,
        "Inclination(deg)": 60.0,
        "Latitude(deg)": 39.58793692592548,
        "Longitude(deg)": 141.55635528961585,
        "Mean Anomaly(deg)": 132.76941843638545,
        "RAAN(deg)": 89.99873985258078,
        "Satellite Name": "Test1 404",
        "Satellite Number": 404,
        "Semi-Major Axis(m)": 6980739.136638005,
        "Time(s)": 30
    },
    {
        "Altitude(m)": 607494.4062035179,
        "Argument of Periapsis(deg)": 0.0004167578365318562,
        "Eccentricity": 0.0,
        "Inclination(deg)": 60.0,
        "Latitude(deg)": 39.11294915993551,
        "Longitude(deg)": 142.0311797416821,
        "Mean Anomaly(deg)": 133.38952458184733,
        "RAAN(deg)": 89.99831980344103,
        "Satellite Name": "Test1 404",
        "Satellite Number": 404,
        "Semi-Major Axis(m)": 6980739.136638005,
        "Time(s)": 40
    },
    {
        "Altitude(m)": 607394.8034633809,
        "Argument of Periapsis(deg)": 0.0005209472956648203,
        "Eccentricity": 0.0,
        "Inclination(deg)": 60.0,
        "Latitude(deg)": 38.635665521138215,
        "Longitude(deg)": 142.49910998154485,
        "Mean Anomaly(deg)": 134.00963072730917,
        "RAAN(deg)": 89.9978997543013,
        "Satellite Name": "Test1 404",
        "Satellite Number": 404,
        "Semi-Major Axis(m)": 6980739.136638005,
        "Time(s)": 50
    },
    {
        "Altitude(m)": 607295.6315372961,
        "Argument of Periapsis(deg)": 0.0006251367547977843,
        "Eccentricity": 0.0,
        "Inclination(deg)": 60.0,
        "Latitude(deg)": 38.15615308135038,
        "Longitude(deg)": 142.9603209586538,
        "Mean Anomaly(deg)": 134.629736872771,
        "RAAN(deg)": 89.99747970516154,
        "Satellite Name": "Test1 404",
        "Satellite Number": 404,
        "Semi-Major Axis(m)": 6980739.136638005,
        "Time(s)": 60
    },
    {
        "Altitude(m)": 607196.9543337827,
        "Argument of Periapsis(deg)": 0.0007293262139307483,
        "Eccentricity": 0.0,
        "Inclination(deg)": 60.0,
        "Latitude(deg)": 37.67447688761335,
        "Longitude(deg)": 143.4149845782152,
        "Mean Anomaly(deg)": 135.2498430182328,
        "RAAN(deg)": 89.9970596560218,
        "Satellite Name": "Test1 404",
        "Satellite Number": 404,
        "Semi-Major Axis(m)": 6980739.136638005,
        "Time(s)": 70
    },
    {
        "Altitude(m)": 607098.8357336381,
        "Argument of Periapsis(deg)": 0.0008335156730637124,
        "Eccentricity": 0.0,
        "Inclination(deg)": 60.0,
        "Latitude(deg)": 37.19070003074707,
        "Longitude(deg)": 143.86326870988745,
        "Mean Anomaly(deg)": 135.86994916369466,
        "RAAN(deg)": 89.99663960688206,
        "Satellite Name": "Test1 404",
        "Satellite Number": 404,
        "Semi-Major Axis(m)": 6980739.136638005,
        "Time(s)": 80
    },
    {
        "Altitude(m)": 607001.3395577769,
        "Argument of Periapsis(deg)": 0.0009377051321966765,
        "Eccentricity": 0.0,
        "Inclination(deg)": 60.0,
        "Latitude(deg)": 36.70488371220267,
        "Longitude(deg)": 144.3053377170283,
        "Mean Anomaly(deg)": 136.49005530915647,
        "RAAN(deg)": 89.99621955774232,
        "Satellite Name": "Test1 404",
        "Satellite Number": 404,
        "Semi-Major Axis(m)": 6980739.136638005,
        "Time(s)": 90
    },
    {
        "Altitude(m)": 606904.5295350408,
        "Argument of Periapsis(deg)": 0.0010418945913296407,
        "Eccentricity": 0.0,
        "Inclination(deg)": 60.0,
        "Latitude(deg)": 36.21708730918655,
        "Longitude(deg)": 144.74135299273777,
        "Mean Anomaly(deg)": 137.11016145461832,
        "RAAN(deg)": 89.99579950860257,
        "Satellite Name": "Test1 404",
        "Satellite Number": 404,
        "Semi-Major Axis(m)": 6980739.136638005,
        "Time(s)": 100
    },
    {
        "Altitude(m)": 606808.4692700068,
        "Argument of Periapsis(deg)": 0.0011460840504626045,
        "Eccentricity": 0.0,
        "Inclination(deg)": 60.0,
        "Latitude(deg)": 35.72736843804206,
        "Longitude(deg)": 145.1714719890111,
        "Mean Anomaly(deg)": 137.73026760008014,
        "RAAN(deg)": 89.99537945946282,
        "Satellite Name": "Test1 404",
        "Satellite Number": 404,
        "Semi-Major Axis(m)": 6980739.136638005,
        "Time(s)": 110
    },
    {
        "Altitude(m)": 606713.2222108075,
        "Argument of Periapsis(deg)": 0.0012502735095955685,
        "Eccentricity": 0.0,
        "Inclination(deg)": 60.0,
        "Latitude(deg)": 35.235783015875036,
        "Longitude(deg)": 145.5958487640119,
        "Mean Anomaly(deg)": 138.35037374554193,
        "RAAN(deg)": 89.99495941032309,
        "Satellite Name": "Test1 404",
        "Satellite Number": 404,
        "Semi-Major Axis(m)": 6980739.136638005,
        "Time(s)": 120
    },
    {
        "Altitude(m)": 606618.8516169505,
        "Argument of Periapsis(deg)": 0.0013544629687285324,
        "Eccentricity": 0.0,
        "Inclination(deg)": 60.0,
        "Latitude(deg)": 34.74238532042677,
        "Longitude(deg)": 146.01463453391497,
        "Mean Anomaly(deg)": 138.97047989100378,
        "RAAN(deg)": 89.99453936118334,
        "Satellite Name": "Test1 404",
        "Satellite Number": 404,
        "Semi-Major Axis(m)": 6980739.136638005,
        "Time(s)": 130
    },
    {
        "Altitude(m)": 606525.420527197,
        "Argument of Periapsis(deg)": 0.0014586524278614966,
        "Eccentricity": 0.0,
        "Inclination(deg)": 60.0,
        "Latitude(deg)": 34.24722804820242,
        "Longitude(deg)": 146.4279767158275,
        "Mean Anomaly(deg)": 139.59058603646565,
        "RAAN(deg)": 89.9941193120436,
        "Satellite Name": "Test1 404",
        "Satellite Number": 404,
        "Semi-Major Axis(m)": 6980739.136638005,
        "Time(s)": 140
    },
    {
        "Altitude(m)": 606432.9917274863,
        "Argument of Periapsis(deg)": 0.0015628418869944607,
        "Eccentricity": 0.0,
        "Inclination(deg)": 60.0,
        "Latitude(deg)": 33.75036237086417,
        "Longitude(deg)": 146.83601948697847,
        "Mean Anomaly(deg)": 140.21069218192747,
        "RAAN(deg)": 89.99369926290386,
        "Satellite Name": "Test1 404",
        "Satellite Number": 404,
        "Semi-Major Axis(m)": 6980739.136638005,
        "Time(s)": 150
    },
    {
        "Altitude(m)": 606341.6277189357,
        "Argument of Periapsis(deg)": 0.0016670313461274247,
        "Eccentricity": 0.0,
        "Inclination(deg)": 60.0,
        "Latitude(deg)": 33.251837989909355,
        "Longitude(deg)": 147.23890434679143,
        "Mean Anomaly(deg)": 140.8307983273893,
        "RAAN(deg)": 89.99327921376411,
        "Satellite Name": "Test1 404",
        "Satellite Number": 404,
        "Semi-Major Axis(m)": 6980739.136638005,
        "Time(s)": 160
    },
    {
        "Altitude(m)": 606251.3906859158,
        "Argument of Periapsis(deg)": 0.0017712208052603888,
        "Eccentricity": 0.0,
        "Inclination(deg)": 60.0,
        "Latitude(deg)": 32.751703189659025,
        "Longitude(deg)": 147.63676916850568,
        "Mean Anomaly(deg)": 141.45090447285114,
        "RAAN(deg)": 89.99285916462438,
        "Satellite Name": "Test1 404",
        "Satellite Number": 404,
        "Semi-Major Axis(m)": 6980739.136638005,
        "Time(s)": 170
    },
    {
        "Altitude(m)": 606162.342464226,
        "Argument of Periapsis(deg)": 0.001875410264393353,
        "Eccentricity": 0.0,
        "Inclination(deg)": 60.0,
        "Latitude(deg)": 32.250004888579,
        "Longitude(deg)": 148.0297487656771,
        "Mean Anomaly(deg)": 142.07101061831295,
        "RAAN(deg)": 89.99243911548463,
        "Satellite Name": "Test1 404",
        "Satellite Number": 404,
        "Semi-Major Axis(m)": 6980739.136638005,
        "Time(s)": 180
    },
    {
        "Altitude(m)": 606074.5445093949,
        "Argument of Periapsis(deg)": 0.0019795997235263173,
        "Eccentricity": 0.0,
        "Inclination(deg)": 60.0,
        "Latitude(deg)": 31.746788688965648,
        "Longitude(deg)": 148.4179754603083,
        "Mean Anomaly(deg)": 142.69111676377477,
        "RAAN(deg)": 89.9920190663449,
        "Satellite Name": "Test1 404",
        "Satellite Number": 404,
        "Semi-Major Axis(m)": 6980739.136638005,
        "Time(s)": 190
    }
]